STARLINK-36332          
1 67862U 26034N   26061.91668981  .00059445  00000+0  30292-3 0  9992
2 67862  53.1572 245.1961 0001015  69.8548  54.2154 15.80852869  2778
STARLINK-36835          
1 67863U 26034P   26061.91668981  .00004934  00000+0  28503-4 0  9999
2 67863  53.1573 245.1862 0001118  73.0964  55.2153 15.80890697  2774
STARLINK-36831          
1 67864U 26034Q   26061.91668981 -.00092193  00000+0 -46758-3 0  9997
2 67864  53.1568 245.1776 0000985  55.4332  77.1665 15.80917368  2773
STARLINK-36738          
1 67865U 26034R   26061.91668981 -.00183756  00000+0 -94426-3 0  9999
2 67865  53.1566 245.1685 0001420  50.6749  86.2129 15.80942372  2774
STARLINK-36780          
1 67866U 26034S   26061.91668981  .00093201  00000+0  47165-3 0  9991
2 67866  53.1550 245.1591 0001089  77.5669  63.5886 15.80826827  2778
STARLINK-36761          
1 67867U 26034T   26061.91668981 -.00011084  00000+0 -52676-4 0  9997
2 67867  53.1553 245.1500 0001279  61.0809  84.3410 15.80875224  2776
STARLINK-36762          
1 67868U 26034U   26061.91668981  .00082115  00000+0  41667-3 0  9996
2 67868  53.1550 245.1416 0001551  62.5710  87.1245 15.80817696  2776
STARLINK-36779          
1 67869U 26034V   26061.91668981  .00015670  00000+0  82805-4 0  9999
2 67869  53.1550 245.1325 0001432  77.2087  76.7513 15.80868572  2775
STARLINK-36770          
1 67870U 26034W   26061.91668981  .00016769  00000+0  88327-4 0  9996
2 67870  53.1543 245.1143 0001232  60.9423 101.5502 15.80875272  2778
STARLINK-36769          
1 67871U 26034X   26061.91668981  .00065413  00000+0  33310-3 0  9998
2 67871  53.1550 245.1236 0000899  78.8856  79.3567 15.80830455  2773
STARLINK-36786          
1 67872U 26034Y   26061.91668981 -.00010704  00000+0 -50748-4 0  9999
2 67872  53.1550 245.1060 0000330  25.7961 140.9676 15.80880326  2775
STARLINK-36783          
1 67873U 26034Z   26061.91668981  .00083913  00000+0  42536-3 0  9995
2 67873  53.1550 245.0959 0000864  62.3569 108.6966 15.80831954  2771
